STARLINK-5122           
1 54179U 22141Y   26068.18982004 -.00002138  00000+0 -11632-3 0  9991
2 54179  53.2185   6.2525 0001485 100.9333 259.1826 15.08832639185786
CSC-1                   
1 58022U 23155G   26068.74030489  .00008819  00000+0  54557-3 0  9994
2 58022  97.5446 139.7305 0007504 212.9992 147.0770 15.10035960132723
